  },
  UARS => {
    epoch => '6033.28720107',
    elset => 678,
    number => 91063,
    bstar => '0.00010225',
    mm1 => '4.895e-05',
    inclination => '56.981',
    raan => '313.1676',
    mm2 => 0,
    eccentricity => '0.0103108',
    argperigee => '312.9644',
    orbit => 78848,
    meanmotion => '15.4204012',
    meananomaly => '46.2767',
    id => 21701
  },
  'GO-32' => {
    elset => 947,
    epoch => '6043.60187753',
    bstar => '2.8726e-05',
    number => 98043,
    inclination => '98.4872',
    mm1 => '2.3e-07',
    raan => '105.2741',
    eccentricity => '9.55e-05',
    mm2 => 0,
    argperigee => '170.5838',
    orbit => 39452,
    meanmotion => '14.23098516',
    id => 25397,
    meananomaly => '189.5379'
  },
  'RS-10/11' => {
    elset => '169',
    epoch => '2317.78523508',
    bstar => '0.00012808',
    number => '87054',
    mm1 => '1.33e-06',
    inclination => '82.9278',
    raan => '218.1142',
    mm2 => '0',
    eccentricity => '0.0012189',
    argperigee => '127.9491',
    orbit => '77123',
    meanmotion => '13.72687186',
    id => '18129',
    meananomaly => '232.2759'
  },
  'WO-39' => {
    elset => '692',
    epoch => '2318.89177936',
    bstar => '0.00047363',
    number => '4',
    mm1 => '1.374e-05',
    inclination => '100.2209',
    raan => '353.1456',
    mm2 => '0',
    eccentricity => '0.0035248',
    argperigee => '189.1',
    orbit => '14678',
    meanmotion => '14.37666115',
    id => '26061',
    meananomaly => '170.9546'
  },
  'SO-41' => {
    elset => 295,
    epoch => '6044.10892658',
    bstar => '2.4758e-05',
    number => 57,
    inclination => '64.5574',
    mm1 => '4.3e-07',
    raan => '276.0578',
    eccentricity => '0.0057647',
    mm2 => 0,
    argperigee => '268.9541',
    orbit => 29058,
    meanmotion => '14.80239568',
    id => 26545,
    meananomaly => '90.4939'
  },
  'PO-34' => {
    elset => 391,
    epoch => '6043.78379374',
    bstar => '1.426e-05',
    number => 98064,
    inclination => '28.4577',
    mm1 => '4.83e-06',
    raan => '143.3341',
    eccentricity => '0.0005283',
    mm2 => 0,
    argperigee => '324.5609',
    orbit => 40314,
    meanmotion => '15.16609168',
    id => 25520,
    meananomaly => '35.464'
  },
  'NOAA-11' => {
    epoch => '6033.5660856',
    elset => 974,
    number => 88089,
    bstar => 0,
    mm1 => '-7.6e-07',
    inclination => '98.8319',
    raan => '123.4288',
    mm2 => 0,
    eccentricity => '0.0011654',
    argperigee => '17.3117',
    orbit => 89550,
    meanmotion => '14.14789192',
    meananomaly => '342.8934',
    id => 19531
  },
  'SO-43' => {
    elset => '529',
    epoch => '2317.79978498',
    bstar => '0.0011061',
    number => '1043',
    mm1 => '0.00173818',
    inclination => '67.0336',
    raan => '284.7174',
    mm2 => '0',
    eccentricity => '0.000126',
    argperigee => '225.1952',
    orbit => '6345',
    meanmotion => '15.75728451',
    id => '26929',
    meananomaly => '134.9195'
  },
  'OKEAN-4' => {
    epoch => '6033.75290085',
    elset => 854,
    number => 94066,
    bstar => '2.2207e-05',
    mm1 => '2.03e-06',
    inclination => '82.537',
    raan => '42.3855',
    mm2 => 0,
    eccentricity => '0.002406',
    argperigee => '96.7261',
    orbit => 61006,
    meanmotion => '14.82304334',
    meananomaly => '263.6704',
    id => 23317
  },
  'KO-23' => {
    elset => 710,
    epoch => '6043.83118672',
    bstar => '0.0001',
    number => 92052,
    inclination => '66.0861',
    mm1 => '-3.7e-07',
    raan => '2.4815',
    eccentricity => '0.0006667',
    mm2 => 0,
    argperigee => '197.9539',
    orbit => 63454,
    meanmotion => '12.86435137',
    id => 22077,
    meananomaly => '162.1245'
  }
);
1;
